1 55781U 23028AS  24170.59847747  .00000477  00000+0  47803-4 0  9999
2 55781  70.0003  10.5616 0003051 267.7866  92.2944 14.98332236 72301
1 55782U 23028AT  24170.82374252  .00000107  00000+0  16775-4 0  9996
2 55782  70.0006 350.2339 0002822 267.8495  92.2340 14.98330425 72820
1 55783U 23028AU  24170.82357346  .00000689  00000+0  65521-4 0  9990
2 55783  70.0008 350.2328 0002784 269.0169  91.0671 14.98335358 72824
1 55784U 23028AV  24170.80704128 -.00001262  00000+0 -97980-4 0  9997
2 55784  70.0001 350.1751 0003014 269.0434  91.0379 14.98338772 72827
1 55785U 23028AW  24170.61912059  .00000532  00000+0  52385-4 0  9998
2 55785  70.0003 350.7234 0003058 266.9636  93.1173 14.98333972 72798
1 55786U 23028AX  24170.60660017 -.00000208  00000+0 -96658-5 0  9996
2 55786  70.0004 350.6790 0003016 269.6761  90.4053 14.98329893 72793
1 55787U 23028AY  24170.61494777  .00000773  00000+0  72611-4 0  9993
2 55787  69.9997 350.7078 0003178 271.6954  88.3841 14.98330513 72790
1 55788U 23028AZ  24170.61079594 -.00002626  00000+0 -21245-3 0  9997
2 55788  70.0007 350.6938 0002815 274.8227  85.2611 14.98312467 72794
1 55789U 23028BA  24170.58573058  .00000037  00000+0  10881-4 0  9995
2 55789  69.9999 350.6041 0003008 269.3283  90.7532 14.98329820 72797
1 55790U 23028BB  24170.59006150 -.00000475  00000+0 -32054-4 0  9996
2 55790  69.9997 350.6215 0003120 271.9794  88.1007 14.98324106 72791
1 55791U 23028BC  24170.60242580  .00000042  00000+0  11286-4 0  9990
2 55791  70.0001 350.6646 0003015 271.4817  88.5997 14.98330942 72790
1 55914U 23037A   24170.81223035  .00001606  00000+0  14239-3 0  9991
2 55914  69.9991  90.2343 0003224 272.2263  87.8527 14.98328813 69622
1 55915U 23037B   24170.52847864 -.00000426  00000+0 -27884-4 0  9994
2 55915  69.9998  90.8486 0002833 267.1732  92.9103 14.98335983 69930
1 55916U 23037C   24170.80804384  .00000820  00000+0  76542-4 0  9997
2 55916  70.0001  90.2198 0002803 273.6665  86.4173 14.98329826 69627
1 55917U 23037D   24170.48307284  .00027730  00000+0  16339-2 0  9994
2 55917  69.9990  83.1490 0003877 229.2880 130.7949 15.11496814 69437
1 55918U 23037E   24170.87063404  .00000516  00000+0  51048-4 0  9992
2 55918  70.0002  90.0380 0002872 273.0874  86.9956 14.98326289 69638
1 55919U 23037F   24170.52864727 -.00000331  00000+0 -19934-4 0  9997
2 55919  69.9997  90.8497 0003050 265.1688  94.9123 14.98334429 69247
1 55920U 23037G   24170.86623581 -.00003926  00000+0 -32138-3 0  9990
2 55920  69.9997  70.1398 0003127 271.2097  88.8704 14.98331511 70122
1 55921U 23037H   24170.84559207  .00002585  00000+0  22445-3 0  9990
2 55921  69.9993  89.9478 0002998 269.4683  90.6132 14.98312024 69639
1 55922U 23037J   24170.51596105 -.00000445  00000+0 -29496-4 0  9992
2 55922  69.9993  90.8037 0002988 267.8366  92.2451 14.98330512 69242
1 55923U 23037K   24170.85393694  .00000743  00000+0  70102-4 0  9997
2 55923  69.9994  89.9764 0003027 267.8528  92.2284 14.98323447 69631
1 55924U 23037L   24170.46149869  .00000542  00000+0  53183-4 0  9995
2 55924  69.9997  71.1347 0002869 268.2505  91.8325 14.98327470 69729
1 55925U 23037M   24170.84141685  .00000638  00000+0  61283-4 0  9992
2 55925  69.9997  89.9328 0002785 266.4004  93.6836 14.98323564 69634
1 55926U 23037N   24170.85371295  .00000778  00000+0  72976-4 0  9992
2 55926  70.0002  70.0986 0002995 270.0377  90.0439 14.98325546 70121
1 55927U 23037P   24170.83322779  .00000704  00000+0  66785-4 0  9994
2 55927  69.9998  89.9044 0002834 267.8635  92.2200 14.98329313 69630
1 55928U 23037Q   24170.49508878 -.00000444  00000+0 -29427-4 0  9998
2 55928  70.0002  90.7299 0002715 268.7510  91.3338 14.98331964 69246
1 55929U 23037R   24170.23221951  .00000650  00000+0  62280-4 0  9996
2 55929  70.0003  91.4177 0002779 269.7724  90.3116 14.98334630 69201
1 55930U 23037S   24170.42393064 -.00000528  00000+0 -36417-4 0  9993
2 55930  70.0002  71.0086 0002932 272.2758  87.8065 14.98335992 69725
1 55931U 23037T   24170.49091646 -.00000130  00000+0 -31401-5 0  9990
2 55931  70.0001  90.7159 0002823 266.7046  93.3790 14.98333822 69245
1 55932U 23037U   24170.91605145 -.00002031  00000+0 -16258-3 0  9996
2 55932  70.0002  49.6317 0002904 269.9081  90.1745 14.98314443 70638
1 55933U 23037V   24170.78277492  .00001442  00000+0  12859-3 0  9998
2 55933  70.0004  70.2542 0002884 267.1987  92.8842 14.98330337 70113
1 55934U 23037W   24170.42409546 -.00001349  00000+0 -10526-3 0  9994
2 55934  70.0001  71.0050 0002854 271.8548  88.2284 14.98338016 69722
1 55935U 23037X   24170.84536415  .00000321  00000+0  34687-4 0  9999
2 55935  69.9996  70.0690 0002958 268.7472  91.3348 14.98326505 70120
1 55936U 23037Y   24170.92021689 -.00001078  00000+0 -82571-4 0  9998
2 55936  70.0011  49.6480 0002658 260.6837  99.4021 14.98339843 70636
1 55937U 23037Z   24170.44062627 -.00001360  00000+0 -10616-3 0  9997
2 55937  70.0006  71.0638 0002773 271.8472  88.2369 14.98335588 69723
1 55938U 23037AA  24170.43645191 -.00002053  00000+0 -16430-3 0  9990
2 55938  70.0008  71.0499 0002811 268.8402  91.2435 14.98339629 69721
1 55939U 23037AB  24170.42810607  .00001090  00000+0  99101-4 0  9991
2 55939  70.0007  71.0208 0002835 273.8578  86.2257 14.98327036 69720
1 55940U 23037AC  24170.43227714 -.00000585  00000+0 -41267-4 0  9995
2 55940  70.0004  71.0361 0002809 272.4206  87.6632 14.98334090 69723
1 55941U 23037AD  24170.45732549 -.00000568  00000+0 -39811-4 0  9998
2 55941  69.9997  71.1219 0003076 270.8090  89.2717 14.98332663 69721
1 55942U 23037AE  24170.47399422  .00000252  00000+0  28898-4 0  9991
2 55942  70.0002  70.7752 0002815 272.4749  87.6088 14.98332264 69739
1 55943U 23037AF  24170.81614637  .00001399  00000+0  12503-3 0  9996
2 55943  70.0001  69.9643 0002834 271.5616  88.5219 14.98321827 70126
1 55944U 23037AG  24170.81196705  .00000665  00000+0  63480-4 0  9994
2 55944  70.0002  69.9492 0002878 272.6341  87.4488 14.98328949 70123
1 55945U 23037AH  24170.15287881  .00000192  00000+0  23884-4 0  9997
2 55945  69.9999  71.6637 0002964 269.1573  90.9247 14.98335289 69687
1 55946U 23037AJ  24170.82031543 -.00000607  00000+0 -43066-4 0  9991
2 55946  70.0001  69.9790 0002979 269.0494  91.0324 14.98333470 70121
1 55947U 23037AK  24170.60350372  .00000704  00000+0  66828-4 0  9999
2 55947  69.9997  70.4252 0002947 267.8708  92.2113 14.98330639 69752
1 55948U 23037AL  24170.83695175  .00000479  00000+0  47932-4 0  9992
2 55948  70.0002  50.1608 0002917 269.2849  90.7976 14.98332530 70611
1 55949U 23037AM  24170.84096148  .00000958  00000+0  88105-4 0  9998
2 55949  70.0003  50.1756 0003117 271.1506  88.9296 14.98329163 70614
1 55950U 23037AN  24170.82844289  .00000163  00000+0  21455-4 0  9998
2 55950  70.0004  50.1300 0002706 274.0901  85.9948 14.98327048 70617
1 55951U 23037AP  24170.80361800  .00000961  00000+0  88359-4 0  9992
2 55951  69.9997  69.9187 0002763 266.2178  93.8666 14.98328008 70127
1 55952U 23037AQ  24170.83277905  .00000244  00000+0  28282-4 0  9991
2 55952  70.0002  50.1477 0002968 272.7889  87.2931 14.98330435 70613
1 55953U 23037AR  24170.91189953 -.00000152  00000+0 -49594-5 0  9996
2 55953  70.0001  50.0223 0003019 271.2159  88.8654 14.98327135 70626
1 55954U 23037AS  24170.40283556  .00000853  00000+0  79264-4 0  9997
2 55954  69.9996  51.0496 0002950 266.3631  93.7191 14.98327031 70214
1 55955U 23037AT  24170.41953287  .00000439  00000+0  44602-4 0  9992
2 55955  70.0000  51.1081 0003005 268.9441  91.1374 14.98329648 70215
1 55956U 23037AU  24170.86181131  .00000067  00000+0  13426-4 0  9990
2 55956  69.9999  49.8441 0003044 271.9532  88.1279 14.98324469 70623
1 55957U 23037AV  24170.08990614 -.00000040  00000+0  44099-5 0  9992
2 55957  70.0000  51.9653 0003092 270.7667  89.3138 14.98333105 70161
1 55958U 23037AW  24170.41535747  .00000187  00000+0  23478-4 0  9990
2 55958  70.0001  51.0935 0002875 269.1680  90.9149 14.98331451 70210
1 55959U 23037AX  24170.41118559 -.00000468  00000+0 -31450-4 0  9992
2 55959  69.9998  51.0800 0002939 264.8218  95.2606 14.98331598 70212
1 55960U 23037AY  24170.09825186  .00000109  00000+0  16909-4 0  9991
2 55960  70.0000  51.9767 0003095 271.6625  88.4179 14.98334649 70167
1 55961U 23037AZ  24170.39866331 -.00000631  00000+0 -45052-4 0  9995
2 55961  70.0001  51.0376 0002917 269.6843  90.3982 14.98331059 70219
1 55962U 23037BA  24170.83678780  .00000240  00000+0  27883-4 0  9990
2 55962  70.0002  50.1557 0003011 272.8248  87.2566 14.98329787 70615
1 55963U 23037BB  24170.40701158 -.00000761  00000+0 -55967-4 0  9994
2 55963  69.9999  51.0654 0002867 268.4020  91.6811 14.98333060 70210
1 55964U 23037BC  24170.37229022  .00000149  00000+0  21019-4 0  9995
2 55964  70.0004  50.0991 0002825 271.6925  88.3910 14.96715252 70238
1 55965U 23037BD  24170.85763203  .00000553  00000+0  54170-4 0  9996
2 55965  70.0005  49.8296 0002807 271.3167  88.7670 14.98332216 70626
1 56317U 23058A   24170.54534365  .00000607  00000+0  51832-4 0  9994
2 56317  97.6554 171.3006 0002122  92.6762 267.4705 15.01260292 63386
1 56318U 23058B   24170.60829642  .00001934  00000+0  15513-3 0  9996
2 56318  97.6550 171.3706 0003516  88.1744 271.9883 15.01253112 63399
1 56319U 23058C   24170.60644225  .00001112  00000+0  91132-4 0  9999
2 56319  97.6540 171.3724 0003512  84.8577 275.3048 15.01261954 63396
1 56320U 23058D   24170.74554483  .00000514  00000+0  44613-4 0  9999
2 56320  97.6552 171.4973 0002274  91.5145 268.6339 15.01260978 63278
1 56321U 23058E   24170.73419157 -.00036486  00000+0 -28515-2 0  9997
2 56321  97.6513 171.5038 0002908  92.3038 267.8519 15.01247212 63258
1 56322U 23058F   24170.61014520  .00000243  00000+0  23549-4 0  9994
2 56322  97.6551 171.3686 0002796  89.7847 270.3698 15.01260084 63395
1 56323U 23058G   24170.73604722  .00000580  00000+0  49752-4 0  9995
2 56323  97.6524 171.5042 0004346  86.5438 273.6283 15.01257779 63278
1 56324U 23058H   24170.73789223 -.00001099  00000+0 -80943-4 0  9991
2 56324  97.6536 171.5044 0004027  89.0502 271.1183 15.01269305 63270
